{
    "links": {
        "self": "http://www.neowsapp.com/rest/v1/neo/3739261?api_key=iIulBulltgU6a56xZRHN4H3l9WmuAYTsLGpBGhQ2"
    },
    "id": "3739261",
    "neo_reference_id": "3739261",
    "name": "(2016 AM9)",
    "designation": "2016 AM9",
    "nasa_jpl_url": "http://ssd.jpl.nasa.gov/sbdb.cgi?sstr=3739261",
    "absolute_magnitude_h": 21.5,
    "estimated_diameter": {
        "kilometers": {
            "estimated_diameter_min": 0.1332155667,
            "estimated_diameter_max": 0.2978790628
        },
        "meters": {
            "estimated_diameter_min": 133.2155666981,
            "estimated_diameter_max": 297.8790627982
        },
        "miles": {
            "estimated_diameter_min": 0.0827762899,
            "estimated_diameter_max": 0.1850934111
        },
        "feet": {
            "estimated_diameter_min": 437.0589598459,
            "estimated_diameter_max": 977.2935443908
        }
    },
    "is_potentially_hazardous_asteroid": false,
    "close_approach_data": [
        {
            "close_approach_date": "2008-07-11",
            "close_approach_date_full": "2008-Jul-11 04:21",
            "epoch_date_close_approach": 1215750060000,
            "relative_velocity": {
                "kilometers_per_second": "14.5484777005",
                "kilometers_per_hour": "52374.5197219249",
                "miles_per_hour": "32543.4897683261"
            },
            "miss_distance": {
                "astronomical": "0.4202570632",
                "lunar": "163.4799975848",
                "kilometers": "62869561.507175384",
                "miles": "39065334.0369489392"
            },
            "orbiting_body": "Earth"
        },
        {
            "close_approach_date": "2015-12-24",
            "close_approach_date_full": "2015-Dec-24 18:53",
            "epoch_date_close_approach": 1450983180000,
            "relative_velocity": {
                "kilometers_per_second": "15.0394431034",
                "kilometers_per_hour": "54141.9951723253",
                "miles_per_hour": "33641.7302780485"
            },
            "miss_distance": {
                "astronomical": "0.3537335396",
                "lunar": "137.6023469044",
                "kilometers": "52917784.071720652",
                "miles": "32881586.2827509176"
            },
            "orbiting_body": "Earth"
        },
        {
            "close_approach_date": "2020-07-24",
            "close_approach_date_full": "2020-Jul-24 06:26",
            "epoch_date_close_approach": 1595571960000,
            "relative_velocity": {
                "kilometers_per_second": "15.0003461869",
                "kilometers_per_hour": "54001.2462729505",
                "miles_per_hour": "33554.2743855453"
            },
            "miss_distance": {
                "astronomical": "0.4864634802",
                "lunar": "189.2342937978",
                "kilometers": "72773900.470707174",
                "miles": "45219604.8915560412"
            },
            "orbiting_body": "Earth"
        }
    ],
    "orbital_data": {
        "orbit_id": "5",
        "orbit_determination_date": "2017-04-06 08:29:24",
        "first_observation_date": "2016-01-04",
        "last_observation_date": "2016-01-18",
        "data_arc_in_days": 14,
        "observations_used": 19,
        "orbit_uncertainty": "7",
        "minimum_orbit_intersection": ".351982",
        "jupiter_tisserand_invariant": "4.549",
        "epoch_osculation": "2459000.5",
        "eccentricity": ".1341117089051941",
        "semi_major_axis": "1.427013409455074",
        "inclination": "29.56230940359257",
        "ascending_node_longitude": "99.4517705656189",
        "orbital_period": "622.6450044879416",
        "perihelion_distance": "1.235634202482427",
        "perihelion_argument": "286.7519107491312",
        "aphelion_distance": "1.618392616427722",
        "perihelion_time": "2459157.265564181095",
        "mean_anomaly": "269.3615098516588",
        "mean_motion": ".5781785727102415",
        "equinox": "J2000",
        "orbit_class": {
            "orbit_class_type": "AMO",
            "orbit_class_description": "Near-Earth asteroid orbits similar to that of 1221 Amor",
            "orbit_class_range": "1.017 AU < q (perihelion) < 1.3 AU"
        }
    },
    "is_sentry_object": false
}